0 FENGYUN 1C DEB
1 32450U 99025DBN 13281.06002186  .00002047  00000-0  15594-2 0  2764
2 32450 099.0458 216.4772 0112088 312.1239 047.0148 13.91871080322257
0 FENGYUN 1C DEB
1 32450U 99025DBN 13286.59506717  .00002119  00000-0  16145-2 0  2781
2 32450 099.0500 221.8837 0110465 296.8304 062.1676 13.91895764323020
0 FENGYUN 1C DEB
1 32450U 99025DBN 13289.03908369  .00002156  00000-0  16401-2 0  2799
2 32450 099.0485 224.2685 0111481 290.4820 068.4527 13.91907294323365
0 FENGYUN 1C DEB
1 32450U 99025DBN 13291.05178744  .00002223  00000-0  16898-2 0  2807
2 32450 099.0501 226.2315 0111501 285.0455 073.8591 13.91917790323647
0 FENGYUN 1C DEB
1 32450U 99025DBN 13293.06447782  .00002277  00000-0  17303-2 0  2813
2 32450 099.0506 228.1971 0111454 279.7798 079.1023 13.91928371323925
